GLOBAL-31               
1 63027U 25033B   26198.92111428  .00005929  00000+0  16392-3 0  9993
2 63027  58.9968 191.9649 0012272  58.0760 302.1507 15.38343706 79053
GLOBAL-32               
1 64231U 25118B   26198.85826191  .00007472  00000+0  19738-3 0  9999
2 64231  58.9943   8.4070 0016743  62.6702 297.6076 15.39331508 62967
GLOBAL-33               
1 66554U 25267A   26198.45124322  .00005599  00000+0  15701-3 0  9991
2 66554  42.0179 240.1361 0008013 110.4897 249.6803 15.37254322 36702
GLOBAL-34               
1 68098U 26043A   26198.91009960  .00006066  00000+0  19308-3 0  9997
2 68098  42.0218  43.0625 0002140 168.2808 191.8080 15.33139238 20546
