{"fetched_at":"2026-07-18T06:28:07.507Z","source":"https://celestrak.org/NORAD/elements/gp.php?NAME=GLOBAL&FORMAT=JSON","constellation":"blacksky-gen3","records":[{"OBJECT_NAME":"GLOBAL-31","OBJECT_ID":"2025-033B","EPOCH":"2026-07-17T22:06:24.273792","CLASSIFICATION_TYPE":"U","MEAN_MOTION":15.38343706,"ECCENTRICITY":0.0012272,"INCLINATION":58.9968,"RA_OF_ASC_NODE":191.9649,"ARG_OF_PERICENTER":58.076,"MEAN_ANOMALY":302.1507,"EPHEMERIS_TYPE":0,"NORAD_CAT_ID":63027,"ELEMENT_SET_NO":999,"REV_AT_EPOCH":7905,"BSTAR":0.00016392205,"MEAN_MOTION_DOT":0.00005929,"MEAN_MOTION_DDOT":0},{"OBJECT_NAME":"GLOBAL-32","OBJECT_ID":"2025-118B","EPOCH":"2026-07-17T20:35:53.829024","CLASSIFICATION_TYPE":"U","MEAN_MOTION":15.39331508,"ECCENTRICITY":0.00167437,"INCLINATION":58.9943,"RA_OF_ASC_NODE":8.407,"ARG_OF_PERICENTER":62.6702,"MEAN_ANOMALY":297.6076,"EPHEMERIS_TYPE":0,"NORAD_CAT_ID":64231,"ELEMENT_SET_NO":999,"REV_AT_EPOCH":6296,"BSTAR":0.00019738448,"MEAN_MOTION_DOT":0.00007472,"MEAN_MOTION_DDOT":0},{"OBJECT_NAME":"GLOBAL-33","OBJECT_ID":"2025-267A","EPOCH":"2026-07-17T10:49:47.414208","CLASSIFICATION_TYPE":"U","MEAN_MOTION":15.37254322,"ECCENTRICITY":0.0008013,"INCLINATION":42.0179,"RA_OF_ASC_NODE":240.1361,"ARG_OF_PERICENTER":110.4897,"MEAN_ANOMALY":249.6803,"EPHEMERIS_TYPE":0,"NORAD_CAT_ID":66554,"ELEMENT_SET_NO":999,"REV_AT_EPOCH":3670,"BSTAR":0.00015701,"MEAN_MOTION_DOT":0.00005599,"MEAN_MOTION_DDOT":0},{"OBJECT_NAME":"GLOBAL-34","OBJECT_ID":"2026-043A","EPOCH":"2026-07-17T21:50:32.605440","CLASSIFICATION_TYPE":"U","MEAN_MOTION":15.33139238,"ECCENTRICITY":0.00021409,"INCLINATION":42.0218,"RA_OF_ASC_NODE":43.0625,"ARG_OF_PERICENTER":168.2808,"MEAN_ANOMALY":191.808,"EPHEMERIS_TYPE":0,"NORAD_CAT_ID":68098,"ELEMENT_SET_NO":999,"REV_AT_EPOCH":2054,"BSTAR":0.00019307708,"MEAN_MOTION_DOT":0.00006066,"MEAN_MOTION_DDOT":0}]}
